start=new Date('2022-04-28T00:00:00.000Z').valueOf();
sats=[{"EPOCH":"2022-04-27T10:13:47.642304","TIME_SYSTEM":"UTC","OBJECT_ID":"2020-019AG","ARG_OF_PERICENTER":"46.2165","MEAN_MOTION":"15.06395268","CLASSIFICATION_TYPE":"U","LAUNCH_DATE":"2020-03-18","ELEMENT_SET_NO":"999","MEAN_ELEMENT_THEORY":"SGP4","MEAN_ANOMALY":"313.8993","REF_FRAME":"TEME","OBJECT_TYPE":"PAYLOAD","OBJECT_NAME":"STARLINK-1284","NORAD_CAT_ID":"45390","APOAPSIS":"548.649","CENTER_NAME":"EARTH","DECAY_DATE":null,"PERIOD":"95.592","REV_AT_EPOCH":"11714","MEAN_MOTION_DDOT":"0.0000000000000","SITE":"AFETR","INCLINATION":"53.0557","RA_OF_ASC_NODE":"6.5196","COUNTRY_CODE":"US","TLE_LINE2":"2 45390  53.0557   6.5196 0002052  46.2165 313.8993 15.06395268117143","PERIAPSIS":"545.807","FILE":"3418497","MEAN_MOTION_DOT":"0.00001149","SEMIMAJOR_AXIS":"6925.363","TLE_LINE1":"1 45390U 20019AG  22117.42624586  .00001149  00000-0  96052-4 0  9994","EPHEMERIS_TYPE":"0","ECCENTRICITY":"0.00020520","RCS_SIZE":"LARGE","BSTAR":"0.00009605200000","GP_ID":"202155793"},{"TIME_SYSTEM":"UTC","OBJECT_ID":"2020-019AH","EPOCH":"2022-04-27T02:37:20.026848","LAUNCH_DATE":"2020-03-18","MEAN_ANOMALY":"280.4797","ELEMENT_SET_NO":"999","MEAN_ELEMENT_THEORY":"SGP4","OBJECT_TYPE":"PAYLOAD","REF_FRAME":"TEME","ARG_OF_PERICENTER":"79.6365","MEAN_MOTION":"15.06391272","CLASSIFICATION_TYPE":"U","NORAD_CAT_ID":"45391","OBJECT_NAME":"STARLINK-1289","MEAN_MOTION_DDOT":"0.0000000000000","REV_AT_EPOCH":"11682","SITE":"AFETR","APOAPSIS":"548.307","DECAY_DATE":null,"CENTER_NAME":"EARTH","PERIOD":"95.593","RA_OF_ASC_NODE":"7.9446","COUNTRY_CODE":"US","INCLINATION":"53.0568","TLE_LINE2":"2 45391  53.0568   7.9446 0001540  79.6365 280.4797 15.06391272116828","SEMIMAJOR_AXIS":"6925.375","PERIAPSIS":"546.174","FILE":"3418497","MEAN_MOTION_DOT":"0.00000956","ECCENTRICITY":"0.00015400","RCS_SIZE":"LARGE","BSTAR":"0.00008308800000","GP_ID":"202156044","EPHEMERIS_TYPE":"0","TLE_LINE1":"1 45391U 20019AH  22117.10925957  .00000956  00000-0  83088-4 0  9996"},{"EPOCH":"2022-04-27T08:58:35.442912","OBJECT_ID":"2020-019AJ","TIME_SYSTEM":"UTC","MEAN_MOTION":"15.11842943","CLASSIFICATION_TYPE":"U","ARG_OF_PERICENTER":"117.4791","OBJECT_TYPE":"PAYLOAD","REF_FRAME":"TEME","MEAN_ELEMENT_THEORY":"SGP4","LAUNCH_DATE":"2020-03-18","ELEMENT_SET_NO":"999","MEAN_ANOMALY":"242.6322","OBJECT_NAME":"STARLINK-1290","NORAD_CAT_ID":"45392","PERIOD":"95.248","APOAPSIS":"531.412","DECAY_DATE":null,"CENTER_NAME":"EARTH","SITE":"AFETR","MEAN_MOTION_DDOT":"0.0000000000000","REV_AT_EPOCH":"11693","INCLINATION":"52.9960","COUNTRY_CODE":"US","RA_OF_ASC_NODE":"358.5384","TLE_LINE2":"2 45392  52.9960 358.5384 0001202 117.4791 242.6322 15.11842943116936","FILE":"3418497","MEAN_MOTION_DOT":"0.00024295","PERIAPSIS":"529.751","SEMIMAJOR_AXIS":"6908.717","TLE_LINE1":"1 45392U 20019AJ  22117.37402133  .00024295  00000-0  14173-2 0  9991","EPHEMERIS_TYPE":"0","GP_ID":"202156790","ECCENTRICITY":"0.00012020","RCS_SIZE":"LARGE","BSTAR":"0.00141730000000"},{"RA_OF_ASC_NODE":"8.1025","COUNTRY_CODE":"US","INCLINATION":"53.0560","TLE_LINE2":"2 45393  53.0560   8.1025 0001298  89.1891 270.9247 15.06393252116855","SEMIMAJOR_AXIS":"6925.369","PERIAPSIS":"546.335","MEAN_MOTION_DOT":"0.00001049","FILE":"3418497","BSTAR":"0.00008933400000","ECCENTRICITY":"0.00012980","RCS_SIZE":"LARGE","GP_ID":"202155544","TLE_LINE1":"1 45393U 20019AK  22117.07240076  .00001049  00000-0  89334-4 0  9990","EPHEMERIS_TYPE":"0","TIME_SYSTEM":"UTC","OBJECT_ID":"2020-019AK","EPOCH":"2022-04-27T01:44:15.425664","ELEMENT_SET_NO":"999","LAUNCH_DATE":"2020-03-18","MEAN_ANOMALY":"270.9247","MEAN_ELEMENT_THEORY":"SGP4","OBJECT_TYPE":"PAYLOAD","REF_FRAME":"TEME","ARG_OF_PERICENTER":"89.1891","MEAN_MOTION":"15.06393252","CLASSIFICATION_TYPE":"U","NORAD_CAT_ID":"45393","OBJECT_NAME":"STARLINK-1291","MEAN_MOTION_DDOT":"0.0000000000000","REV_AT_EPOCH":"11685","SITE":"AFETR","DECAY_DATE":null,"CENTER_NAME":"EARTH","APOAPSIS":"548.133","PERIOD":"95.593"},{"TLE_LINE2":"2 45394  53.0566   7.9785 0001408  74.1301 285.9843 15.06399239116832","INCLINATION":"53.0566","COUNTRY_CODE":"US","RA_OF_ASC_NODE":"7.9785","TLE_LINE1":"1 45394U 20019AL  22117.10188378  .00002035  00000-0  15550-3 0  9995","EPHEMERIS_TYPE":"0","GP_ID":"202155293","BSTAR":"0.00015550000000","RCS_SIZE":"LARGE","ECCENTRICITY":"0.00014080","MEAN_MOTION_DOT":"0.00002035","FILE":"3418497","PERIAPSIS":"546.241","SEMIMAJOR_AXIS":"6925.351","CLASSIFICATION_TYPE":"U","MEAN_MOTION":"15.06399239","ARG_OF_PERICENTER":"74.1301","REF_FRAME":"TEME","OBJECT_TYPE":"PAYLOAD","ELEMENT_SET_NO":"999","LAUNCH_DATE":"2020-03-18","MEAN_ANOMALY":"285.9843","MEAN_ELEMENT_THEORY":"SGP4","EPOCH":"2022-04-27T02:26:42.758592","OBJECT_ID":"2020-019AL","TIME_SYSTEM":"UTC","PERIOD":"95.592","CENTER_NAME":"EARTH","DECAY_DATE":null,"APOAPSIS":"548.191","SITE":"AFETR","MEAN_MOTION_DDOT":"0.0000000000000","REV_AT_EPOCH":"11683","OBJECT_NAME":"STARLINK-1292","NORAD_CAT_ID":"45394"},{"TLE_LINE2":"2 45395  53.0562   6.6614 0001599  79.9869 280.1300 15.06390155116326","COUNTRY_CODE":"US","RA_OF_ASC_NODE":"6.6614","INCLINATION":"53.0562","GP_ID":"202156545","RCS_SIZE":"LARGE","ECCENTRICITY":"0.00015990","BSTAR":"0.00004962200000","EPHEMERIS_TYPE":"0","TLE_LINE1":"1 45395U 20019AM  22117.39676612  .00000457  00000-0  49622-4 0  9994","SEMIMAJOR_AXIS":"6925.379","FILE":"3418497","MEAN_MOTION_DOT":"0.00000457","PERIAPSIS":"546.136","OBJECT_TYPE":"PAYLOAD","REF_FRAME":"TEME","MEAN_ELEMENT_THEORY":"SGP4","LAUNCH_DATE":"2020-03-18","ELEMENT_SET_NO":"999","MEAN_ANOMALY":"280.1300","CLASSIFICATION_TYPE":"U","MEAN_MOTION":"15.06390155","ARG_OF_PERICENTER":"79.9869","OBJECT_ID":"2020-019AM","TIME_SYSTEM":"UTC","EPOCH":"2022-04-27T09:31:20.592768","SITE":"AFETR","MEAN_MOTION_DDOT":"0.0000000000000","REV_AT_EPOCH":"11632","PERIOD":"95.593","APOAPSIS":"548.351","CENTER_NAME":"EARTH","DECAY_DATE":null,"NORAD_CAT_ID":"45395","OBJECT_NAME":"STARLINK-1297"},{"GP_ID":"202168408","BSTAR":"0.00009484300000","ECCENTRICITY":"0.00014530","RCS_SIZE":"LARGE","TLE_LINE1":"1 45396U 20019AN  22117.84275816  .00001131  00000-0  94843-4 0  9991","EPHEMERIS_TYPE":"0","SEMIMAJOR_AXIS":"6925.349","MEAN_MOTION_DOT":"0.00001131","FILE":"3418807","PERIAPSIS":"546.208","TLE_LINE2":"2 45396  53.0562   4.6386 0001453  78.9970 281.1182 15.06399794116925","COUNTRY_CODE":"US","RA_OF_ASC_NODE":"4.6386","INCLINATION":"53.0562","SITE":"AFETR","MEAN_MOTION_DDOT":"0.0000000000000","REV_AT_EPOCH":"11692","PERIOD":"95.592","DECAY_DATE":null,"CENTER_NAME":"EARTH","APOAPSIS":"548.220","NORAD_CAT_ID":"45396","OBJECT_NAME":"STARLINK-1303","OBJECT_TYPE":"PAYLOAD","REF_FRAME":"TEME","LAUNCH_DATE":"2020-03-18","ELEMENT_SET_NO":"999","MEAN_ANOMALY":"281.1182","MEAN_ELEMENT_THEORY":"SGP4","CLASSIFICATION_TYPE":"U","MEAN_MOTION":"15.06399794","ARG_OF_PERICENTER":"78.9970","OBJECT_ID":"2020-019AN","TIME_SYSTEM":"UTC","EPOCH":"2022-04-27T20:13:34.305024"},{"TIME_SYSTEM":"UTC","OBJECT_ID":"2020-019AP","EPOCH":"2022-04-27T20:29:29.184000","ELEMENT_SET_NO":"999","LAUNCH_DATE":"2020-03-18","MEAN_ELEMENT_THEORY":"SGP4","MEAN_ANOMALY":"257.9828","REF_FRAME":"TEME","OBJECT_TYPE":"PAYLOAD","ARG_OF_PERICENTER":"102.1311","CLASSIFICATION_TYPE":"U","MEAN_MOTION":"15.06414692","NORAD_CAT_ID":"45397","OBJECT_NAME":"STARLINK-1307","MEAN_MOTION_DDOT":"0.0000000000000","REV_AT_EPOCH":"11703","SITE":"AFETR","CENTER_NAME":"EARTH","DECAY_DATE":null,"APOAPSIS":"548.094","PERIOD":"95.591","RA_OF_ASC_NODE":"4.5861","COUNTRY_CODE":"US","INCLINATION":"53.0548","TLE_LINE2":"2 45397  53.0548   4.5861 0001336 102.1311 257.9828 15.06414692117032","SEMIMAJOR_AXIS":"6925.304","PERIAPSIS":"546.243","MEAN_MOTION_DOT":"0.00006639","FILE":"3418797","BSTAR":"0.00046398000000","ECCENTRICITY":"0.00013360","RCS_SIZE":"LARGE","GP_ID":"202168388","TLE_LINE1":"1 45397U 20019AP  22117.85381000  .00006639  00000-0  46398-3 0  9995","EPHEMERIS_TYPE":"0"},{"OBJECT_NAME":"STARLINK-1312","NORAD_CAT_ID":"45398","APOAPSIS":"548.224","CENTER_NAME":"EARTH","DECAY_DATE":null,"PERIOD":"95.593","REV_AT_EPOCH":"11696","MEAN_MOTION_DDOT":"0.0000000000000","SITE":"AFETR","EPOCH":"2022-04-27T20:18:53.228160","TIME_SYSTEM":"UTC","OBJECT_ID":"2020-019AQ","ARG_OF_PERICENTER":"90.0088","CLASSIFICATION_TYPE":"U","MEAN_MOTION":"15.06393628","LAUNCH_DATE":"2020-03-18","ELEMENT_SET_NO":"999","MEAN_ANOMALY":"270.1064","MEAN_ELEMENT_THEORY":"SGP4","REF_FRAME":"TEME","OBJECT_TYPE":"PAYLOAD","PERIAPSIS":"546.242","FILE":"3418797","MEAN_MOTION_DOT":"-0.00000612","SEMIMAJOR_AXIS":"6925.368","EPHEMERIS_TYPE":"0","TLE_LINE1":"1 45398U 20019AQ  22117.84644940 -.00000612  00000-0 -22194-4 0  9996","ECCENTRICITY":"0.00014310","RCS_SIZE":"LARGE","BSTAR":"-0.00002219400000","GP_ID":"202168750","INCLINATION":"53.0553","RA_OF_ASC_NODE":"4.6168","COUNTRY_CODE":"US","TLE_LINE2":"2 45398  53.0553   4.6168 0001431  90.0088 270.1064 15.06393628116967"},{"TLE_LINE2":"2 45399  53.0555 354.7328 0001544  60.5931 299.5212 15.06401298117156","COUNTRY_CODE":"US","RA_OF_ASC_NODE":"354.7328","INCLINATION":"53.0555","GP_ID":"202168669","RCS_SIZE":"LARGE","ECCENTRICITY":"0.00015440","BSTAR":"0.00011138000000","EPHEMERIS_TYPE":"0","TLE_LINE1":"1 45399U 20019AR  22117.82156314  .00001378  00000-0  11138-3 0  9991","SEMIMAJOR_AXIS":"6925.345","FILE":"3418792","MEAN_MOTION_DOT":"0.00001378","PERIAPSIS":"546.140","REF_FRAME":"TEME","OBJECT_TYPE":"PAYLOAD","LAUNCH_DATE":"2020-03-18","MEAN_ELEMENT_THEORY":"SGP4","ELEMENT_SET_NO":"999","MEAN_ANOMALY":"299.5212","CLASSIFICATION_TYPE":"U","MEAN_MOTION":"15.06401298","ARG_OF_PERICENTER":"60.5931","OBJECT_ID":"2020-019AR","TIME_SYSTEM":"UTC","EPOCH":"2022-04-27T19:43:03.055296","SITE":"AFETR","MEAN_MOTION_DDOT":"0.0000000000000","REV_AT_EPOCH":"11715","PERIOD":"95.592","APOAPSIS":"548.279","DECAY_DATE":null,"CENTER_NAME":"EARTH","NORAD_CAT_ID":"45399","OBJECT_NAME":"STARLINK-1255"}];
